STARLINK-30789          
1 58166U 23166S   26068.65328472 -.00001712  00000+0 -45699-4 0  9992
2 58166  53.1596 219.7891 0001557  88.6419 271.4760 15.30179862133172
ION SCV-017             
1 63230U 25052W   26068.71648816  .00006457  00000+0  24539-3 0  9998
2 63230  97.4016 324.7516 0023746  44.9875 315.3282 15.26881798 54851
