[{"OBJECT_NAME":"STARLINK-30789","OBJECT_ID":"2023-166S","EPOCH":"2026-03-09T15:40:43.799808","MEAN_MOTION":15.30179862,"ECCENTRICITY":0.00015567,"INCLINATION":53.1596,"RA_OF_ASC_NODE":219.7891,"ARG_OF_PERICENTER":88.6419,"MEAN_ANOMALY":271.476,"EPHEMERIS_TYPE":0,"CLASSIFICATION_TYPE":"U","NORAD_CAT_ID":58166,"ELEMENT_SET_NO":999,"REV_AT_EPOCH":13317,"BSTAR":-4.5699263e-5,"MEAN_MOTION_DOT":-1.712e-5,"MEAN_MOTION_DDOT":0},{"OBJECT_NAME":"ION SCV-017","OBJECT_ID":"2025-052W","EPOCH":"2026-03-09T17:11:44.577024","MEAN_MOTION":15.26881798,"ECCENTRICITY":0.0023746,"INCLINATION":97.4016,"RA_OF_ASC_NODE":324.7516,"ARG_OF_PERICENTER":44.9875,"MEAN_ANOMALY":315.3282,"EPHEMERIS_TYPE":0,"CLASSIFICATION_TYPE":"U","NORAD_CAT_ID":63230,"ELEMENT_SET_NO":999,"REV_AT_EPOCH":5485,"BSTAR":0.00024539061,"MEAN_MOTION_DOT":6.457e-5,"MEAN_MOTION_DDOT":0}]
